STARLINK-1391           
1 45750U 20038W   24034.32426152  .00001309  00000+0  10676-3 0  9997
2 45750  53.0556  52.4737 0001469 100.6142 259.5012 15.06405521201128
STARLINK-1464           
1 45751U 20038X   24034.32057831 -.00000077  00000+0  13692-4 0  9996
2 45751  53.0564  52.4964 0001418  94.1682 265.9469 15.06410233202236
STARLINK-1476           
1 45753U 20038Z   24034.33162722  .00001215  00000+0  10043-3 0  9995
2 45753  53.0541  52.4439 0001615 102.1384 257.9786 15.06401877201122
STARLINK-1477           
1 45754U 20038AA  24034.26897088  .00003487  00000+0  25278-3 0  9997
2 45754  53.0544  52.7246 0001589 103.3559 256.7608 15.06411070201117
STARLINK-1478           
1 45755U 20038AB  24034.42009628  .00002426  00000+0  18167-3 0  9992
2 45755  53.0563  52.0504 0001710  95.3219 264.7965 15.06403249201123
STARLINK-1484           
1 45756U 20038AC  24034.27161733  .00024446  00000+0  15892-2 0  9999
2 45756  53.0531  52.5801 0002099  49.0022 311.1149 15.07887226201104
STARLINK-1486           
1 45757U 20038AD  24034.34584399  .00015318  00000+0  62358-3 0  9993
2 45757  53.0825  22.9899 0005918  81.1942 278.9725 15.24693153201530
STARLINK-1487           
1 45758U 20038AE  24034.18670861  .00010840  00000+0  44117-3 0  9994
2 45758  53.0391  21.1553 0005194 130.3371 229.8081 15.25024438201542
STARLINK-1493           
1 45759U 20038AF  24034.27634575  .00002546  00000+0  18974-3 0  9993
2 45759  53.0550  52.6945 0001610  94.7775 265.3398 15.06406258201105
STARLINK-1494           
1 45760U 20038AG  24034.34637981  .00002117  00000+0  16093-3 0  9991
2 45760  53.0555  52.3822 0001647  99.7371 260.3804 15.06403913201124
STARLINK-1499           
1 45762U 20038AJ  24034.33351721  .00012609  00000+0  48345-3 0  9999
2 45762  53.0109   3.7148 0001691 127.5745 232.5406 15.26876821201815
STARLINK-1502           
1 45764U 20038AL  24034.77394953  .00001925  00000+0  14807-3 0  9998
2 45764  53.0549  50.4567 0001847  85.4669 274.6531 15.06401332202118
STARLINK-1509           
1 45766U 20038AN  24034.29061164  .00015337  00000+0  47406-3 0  9995
2 45766  53.0480   4.6922 0003356  94.7999 265.3385 15.33723242201789
STARLINK-1511           
1 45767U 20038AP  24034.42378799  .00001980  00000+0  15176-3 0  9994
2 45767  53.0540  52.0242 0001517  89.5658 270.5505 15.06399157201124
STARLINK-1521           
1 45768U 20038AQ  24034.58334491  .00103039  00000+0  56671-3 0  9996
2 45768  53.0494   6.5734 0007479  96.2598  13.8327 15.78919602  6006
STARLINK-1459           
1 45769U 20038AR  24034.36571382  .00002203  00000+0  16675-3 0  9996
2 45769  53.0540  72.3195 0001434  88.3344 271.7810 15.06402257200841
STARLINK-1462           
1 45770U 20038AS  24034.36571012  .00001115  00000+0  93708-4 0  9992
2 45770  53.0555  32.2883 0001532  95.2255 264.8909 15.06404426201398
STARLINK-1463           
1 45771U 20038AT  24034.82371641  .00002495  00000+0  18639-3 0  9991
2 45771  53.0553  30.2329 0001805  99.8611 260.2582 15.06394986202587
STARLINK-1470           
1 45772U 20038AU  24034.28187560  .00003059  00000+0  22414-3 0  9990
2 45772  53.0539  32.6714 0001636 100.4988 259.6185 15.06407847201394
STARLINK-1482           
1 45773U 20038AV  24034.27450319  .00001585  00000+0  12529-3 0  9993
2 45773  53.0561  32.7052 0001663 100.6473 259.4704 15.06403217201399
STARLINK-1485           
1 45774U 20038AW  24034.31136818  .00001540  00000+0  12228-3 0  9991
2 45774  53.0560  32.5359 0001776  83.9288 276.1903 15.06404303201393
STARLINK-1488           
1 45775U 20038AX  24034.26299776  .00060317  00000+0  21066-2 0  9995
2 45775  53.0726 355.3835 0007788  66.4558 293.7258 15.29004299201931
STARLINK-1489           
1 45776U 20038AY  24034.38876597  .00001537  00000+0  12205-3 0  9996
2 45776  53.0570  32.1843 0001658  94.5333 265.5845 15.06407502201412
STARLINK-1490           
1 45777U 20038AZ  24034.31616084  .00009727  00000+0  43232-3 0  9996
2 45777  53.0442   9.4247 0003666 111.4020 248.7367 15.22154514201736
STARLINK-1491           
1 45778U 20038BA  24034.36665425 -.00004710  00000+0 -29767-3 0  9991
2 45778  53.0558  32.2892 0001402  83.3388 276.7761 15.06383259201398
STARLINK-1492           
1 45779U 20038BB  24034.25507025  .00012953  00000+0  46482-3 0  9990
2 45779  53.0292 347.1745 0002904 107.5805 252.5511 15.29039708202028
STARLINK-1496           
1 45780U 20038BC  24034.37402270  .00001069  00000+0  90631-4 0  9993
2 45780  53.0553  32.2517 0001511  92.6862 267.4300 15.06407055201398
STARLINK-1497           
1 45781U 20038BD  24034.26713347  .00000950  00000+0  82638-4 0  9998
2 45781  53.0566  32.7303 0001587 104.1187 255.9979 15.06404259201389
STARLINK-1498           
1 45782U 20038BE  24034.24135903  .00013882  00000+0  51147-3 0  9991
2 45782  53.0499 347.1512 0007312  90.4215 269.7621 15.28095674202043
STARLINK-1505           
1 45783U 20038BF  24034.26344751  .00003418  00000+0  24819-3 0  9997
2 45783  53.0543  32.7485 0001337  87.0684 273.0458 15.06409423201393
STARLINK-1510           
1 45784U 20038BG  24034.37034349  .00001123  00000+0  94290-4 0  9991
2 45784  53.0564  32.2704 0001566  95.4661 264.6507 15.06400773201400
STARLINK-1512           
1 45785U 20038BH  24034.21922317  .00003966  00000+0  28492-3 0  9993
2 45785  53.0548  32.9478 0001553  88.7576 271.3591 15.06409334201381
STARLINK-1513           
1 45786U 20038BJ  24034.20447241  .00004964  00000+0  35175-3 0  9996
2 45786  53.0557  33.0190 0001297  84.6339 275.4798 15.06417501201381
STARLINK-1517           
1 45787U 20038BK  24034.41088666  .00001685  00000+0  13200-3 0  9994
2 45787  53.0558  32.0893 0001620 105.1763 254.9406 15.06399912201419
STARLINK-1522           
1 46027U 20055A   24034.78224990  .00003363  00000+0  24457-3 0  9994
2 46027  53.0551 320.4220 0001913  97.0738 263.0468 15.06399728193081
STARLINK-1523           
1 46028U 20055B   24034.79700104  .00004219  00000+0  30204-3 0  9990
2 46028  53.0566 320.3655 0002121  57.0943 303.0249 15.06394837193094
STARLINK-1526           
1 46029U 20055C   24034.78961843  .00005616  00000+0  39555-3 0  9999
2 46029  53.0557 320.3890 0001321  76.7835 283.3302 15.06403901193098
STARLINK-1534           
1 46030U 20055D   24034.21091778  .00012890  00000+0  88205-3 0  9998
2 46030  53.0556 322.9871 0001364  87.8566 272.2580 15.06426647193476
STARLINK-1544           
1 46031U 20055E   24034.78728045  .00000789  00000+0  74807-4 0  9993
2 46031  53.0566 320.8388 0001973  96.9571 263.1641 15.04763984193081
STARLINK-1555           
1 46032U 20055F   24034.77487029  .00002648  00000+0  19656-3 0  9993
2 46032  53.0546 320.4542 0001825  96.0907 264.0290 15.06403632193081
STARLINK-1556           
1 46033U 20055G   24034.82279243  .00003164  00000+0  23123-3 0  9995
2 46033  53.0539 320.2312 0001710 131.8675 228.2460 15.06395311193096
STARLINK-1557           
1 46034U 20055H   24034.82647613 -.00002078  00000+0 -12069-3 0  9998
2 46034  53.0557 320.2255 0001447  90.9894 269.1261 15.06394969193099
STARLINK-1558           
1 46035U 20055J   24034.17037803  .00009061  00000+0  62621-3 0  9997
2 46035  53.0552 323.1642 0001404  90.9844 269.1306 15.06409905193519
STARLINK-1560           
1 46036U 20055K   24034.81910131  .00003383  00000+0  24585-3 0  9991
2 46036  53.0546 320.2520 0001329  65.3666 294.7461 15.06407852193098
STARLINK-1565           
1 46037U 20055L   24034.81541960  .00000412  00000+0  46575-4 0  9996
2 46037  53.0554 320.2742 0001525  96.9960 263.1203 15.06396847193094
STARLINK-1567           
1 46038U 20055M   24034.03400097  .00015424  00000+0  10517-2 0  9990
2 46038  53.0555 323.7825 0001430  92.2857 267.8296 15.06412941193485
STARLINK-1569           
1 46039U 20055N   24034.77119138  .00003830  00000+0  27586-3 0  9998
2 46039  53.0550 320.4711 0001724  86.5072 273.6114 15.06400878193086
STARLINK-1576           
1 46040U 20055P   24034.80067343  .00003008  00000+0  22074-3 0  9998
2 46040  53.0557 320.3356 0001418 104.8926 255.2220 15.06404722193098
STARLINK-1580           
1 46041U 20055Q   24034.81174139  .00000010  00000+0  19536-4 0  9992
2 46041  53.0562 320.3764 0001194  97.5006 262.6118 15.06399209193097
STARLINK-1581           
1 46042U 20055R   24034.78593249  .00008536  00000+0  59116-3 0  9994
2 46042  53.0543 320.4035 0001537  96.4226 263.6938 15.06405563193094
STARLINK-1582           
1 46043U 20055S   24034.18144338  .00008537  00000+0  59139-3 0  9996
2 46043  53.0545 323.1166 0001567 105.6176 254.4986 15.06393854193508
STARLINK-1584           
1 46044U 20055T   24034.79235946  .00002317  00000+0  17440-3 0  9999
2 46044  53.0553 320.3690 0001553  84.3354 275.7812 15.06397362193091
STARLINK-1591           
1 46045U 20055U   24034.80435809  .00002920  00000+0  21481-3 0  9992
2 46045  53.0563 320.3194 0001534  91.3195 268.7970 15.06403353193097
STARLINK-1524           
1 46047U 20055W   24034.16024470  .00009379  00000+0  64760-3 0  9993
2 46047  53.0539 313.2120 0001536 124.1357 235.9778 15.06404050193647
STARLINK-1527           
1 46048U 20055X   24034.75368607  .00007606  00000+0  52888-3 0  9991
2 46048  53.0537 310.5515 0001511  91.6372 268.4790 15.06404372193228
STARLINK-1530           
1 46049U 20055Y   24034.75000188  .00003263  00000+0  23787-3 0  9990
2 46049  53.0548 310.5682 0001394  95.6553 264.4595 15.06395170193202
STARLINK-1540           
1 46051U 20055AA  24034.78685653  .00003165  00000+0  23124-3 0  9998
2 46051  53.0584 310.4043 0001494  77.1226 282.9930 15.06404133193239
STARLINK-1541           
1 46052U 20055AB  24034.77211208  .00004518  00000+0  32195-3 0  9990
2 46052  53.0547 310.4634 0001611 102.7680 257.3489 15.06403236193222
STARLINK-1543           
1 46053U 20055AC  24034.77579428 -.00001992  00000+0 -11483-3 0  9994
2 46053  53.0556 310.4478 0001473  90.4318 269.6840 15.06404205193220
